{
  "type": "FeatureCollection",
  "features": [
    {
      "type": "Feature",
      "id": 10949,
      "geometry": {
        "type": "Polygon",
        "coordinates": [
          [
            [
              177.020347384677,
              -38.0742600814963
            ],
            [
              177.020974033886,
              -38.074600331544
            ],
            [
              177.023318867359,
              -38.0748300975972
            ],
            [
              177.023089783987,
              -38.0749036975285
            ],
            [
              177.02223160071,
              -38.07496823125
            ],
            [
              177.021551484741,
              -38.074927148017
            ],
            [
              177.020536418039,
              -38.0745879813932
            ],
            [
              177.020347384677,
              -38.0742600814963
            ]
          ]
        ]
      },
      "properties": {
        "OBJECTID": 10949,
        "NaPALIS_ID": 2792536,
        "Name": "Conservation Area - Puketi Rd",
        "Type": "CONSERVATION_AREA",
        "Legislation": "CONSERVATION_ACT",
        "Section": "S25_STEWARDSHIP_AREA",
        "Conservation_Unit_Number": "W16006",
        "Recorded_Area": 0.4
      }
    },
    {
      "type": "Feature",
      "id": 10757,
      "geometry": {
        "type": "Polygon",
        "coordinates": [
          [
            [
              169.491650317309,
              -46.4762575161188
            ],
            [
              169.489972450181,
              -46.4767271320528
            ],
            [
              169.490313667059,
              -46.4764591986604
            ],
            [
              169.490352200043,
              -46.4758930156208
            ],
            [
              169.490777483807,
              -46.4756746657728
            ],
            [
              169.491094765857,
              -46.4757674655412
            ],
            [
              169.491650317309,
              -46.4762575161188
            ]
          ]
        ]
      },
      "properties": {
        "OBJECTID": 10757,
        "NaPALIS_ID": 2805247,
        "Name": "Conservation Area - Puketiro / Tawanui Road",
        "Type": "CONSERVATION_AREA",
        "Legislation": "CONSERVATION_ACT",
        "Section": "S25_STEWARDSHIP_AREA",
        "Conservation_Unit_Number": "G47168",
        "Recorded_Area": 0.7
      }
    },
    {
      "type": "Feature",
      "id": 9934,
      "geometry": {
        "type": "Polygon",
        "coordinates": [
          [
            [
              169.493157167081,
              -46.4857774987448
            ],
            [
              169.493973716996,
              -46.4857611656346
            ],
            [
              169.494842349517,
              -46.4861181321293
            ],
            [
              169.494805983845,
              -46.4867578485177
            ],
            [
              169.493171500405,
              -46.4867526819782
            ],
            [
              169.493157167081,
              -46.4857774987448
            ]
          ]
        ]
      },
      "properties": {
        "OBJECTID": 9934,
        "NaPALIS_ID": 2805248,
        "Name": "Conservation Area - Puketiro Station Road",
        "Type": "CONSERVATION_AREA",
        "Legislation": "CONSERVATION_ACT",
        "Section": "S25_STEWARDSHIP_AREA",
        "Conservation_Unit_Number": "G47169",
        "Recorded_Area": 1.3
      }
    },
    {
      "type": "Feature",
      "id": 9674,
      "geometry": {
        "type": "MultiPolygon",
        "coordinates": [
          [
            [
              [
                173.771419649213,
                -35.2548522990302
              ],
              [
                173.771513516368,
                -35.2555050992852
              ],
              [
                173.771313717298,
                -35.2560679654599
              ],
              [
                173.770973083234,
                -35.2566197823469
              ],
              [
                173.770315533057,
                -35.2564603497647
              ],
              [
                173.769159883347,
                -35.2570589155775
              ],
              [
                173.768883350167,
                -35.2570648487339
              ],
              [
                173.768717716902,
                -35.2573907659481
              ],
              [
                173.768588933161,
                -35.25734329915
              ],
              [
                173.768212182738,
                -35.2578602317553
              ],
              [
                173.767789167043,
                -35.258121015801
              ],
              [
                173.767478333327,
                -35.2584545159663
              ],
              [
                173.767395667334,
                -35.2586472330222
              ],
              [
                173.765985616026,
                -35.260081999644
              ],
              [
                173.765941000025,
                -35.2605652326738
              ],
              [
                173.761266399913,
                -35.2617364993157
              ],
              [
                173.760742316804,
                -35.2617176990107
              ],
              [
                173.760721449851,
                -35.2613920817382
              ],
              [
                173.761076316574,
                -35.2606520823489
              ],
              [
                173.761129449367,
                -35.2602587830836
              ],
              [
                173.761363916741,
                -35.2600096159416
              ],
              [
                173.761450216061,
                -35.2596548159706
              ],
              [
                173.761672200212,
                -35.259331282384
              ],
              [
                173.761863266926,
                -35.2591414492154
              ],
              [
                173.762385599548,
                -35.25889409919
              ],
              [
                173.762883066607,
                -35.2587440658872
              ],
              [
                173.763220216185,
                -35.2587210992546
              ],
              [
                173.763453033986,
                -35.2585582327327
              ],
              [
                173.763459617251,
                -35.2584624157862
              ],
              [
                173.763266433069,
                -35.2583014486835
              ],
              [
                173.763168734113,
                -35.2580634662961
              ],
              [
                173.763131633025,
                -35.2576250326463
              ],
              [
                173.763216483113,
                -35.2575000324426
              ],
              [
                173.763476100115,
                -35.2574354827017
              ],
              [
                173.76367313386,
                -35.2574960656494
              ],
              [
                173.764049300008,
                -35.2577289489022
              ],
              [
                173.764374449983,
                -35.2580482491359
              ],
              [
                173.764501882717,
                -35.2581083822163
              ],
              [
                173.764663550011,
                -35.2580911484893
              ],
              [
                173.765079734086,
                -35.2577034991136
              ],
              [
                173.765223999818,
                -35.2574875824669
              ],
              [
                173.765121899317,
                -35.2568775652641
              ],
              [
                173.765742766677,
                -35.2568769154243
              ],
              [
                173.766215550156,
                -35.2566630659096
              ],
              [
                173.76645870004,
                -35.2563131155103
              ],
              [
                173.766273916382,
                -35.2559562318574
              ],
              [
                173.766292966536,
                -35.2558690829769
              ],
              [
                173.767061299853,
                -35.2558494156048
              ],
              [
                173.767306650105,
                -35.2557543325144
              ],
              [
                173.767441817217,
                -35.2555818497771
              ],
              [
                173.767660133337,
                -35.2550091495135
              ],
              [
                173.767827733198,
                -35.2549342323295
              ],
              [
                173.768029417502,
                -35.2548959159366
              ],
              [
                173.768865649577,
                -35.2550440657701
              ],
              [
                173.769134150109,
                -35.2549772654318
              ],
              [
                173.769624116588,
                -35.2546595318481
              ],
              [
                173.7698503837,
                -35.2548144986359
              ],
              [
                173.769943432882,
                -35.2550904992763
              ],
              [
                173.770033866529,
                -35.2551450993486
              ],
              [
                173.770302499776,
                -35.2550875152426
              ],
              [
                173.771058866574,
                -35.2545277489872
              ],
              [
                173.771349050311,
                -35.2543961651351
              ],
              [
                173.771871567453,
                -35.2544162994385
              ],
              [
                173.771419649213,
                -35.2548522990302
              ]
            ]
          ],
          [
            [
              [
                173.772336666275,
                -35.2542526156798
              ],
              [
                173.772128083346,
                -35.2543707818174
              ],
              [
                173.771460250222,
                -35.2542942824819
              ],
              [
                173.771042400059,
                -35.2544388654328
              ],
              [
                173.770167383345,
                -35.2550998491596
              ],
              [
                173.769993767316,
                -35.2550274320722
              ],
              [
                173.769933784093,
                -35.2548281992025
              ],
              [
                173.7696891494,
                -35.2545749825574
              ],
              [
                173.769502450507,
                -35.2546310821976
              ],
              [
                173.769233283916,
                -35.2548757491414
              ],
              [
                173.768860016485,
                -35.2550062995796
              ],
              [
                173.768067550106,
                -35.2548291985258
              ],
              [
                173.767754899989,
                -35.2548718997388
              ],
              [
                173.76759349988,
                -35.2549825984932
              ],
              [
                173.767442483895,
                -35.255441382919
              ],
              [
                173.767251017206,
                -35.2556667319172
              ],
              [
                173.767013917045,
                -35.2557342659036
              ],
              [
                173.766008716847,
                -35.2558235986892
              ],
              [
                173.766005483731,
                -35.2558940321634
              ],
              [
                173.766193099618,
                -35.2560310491645
              ],
              [
                173.766294449926,
                -35.2562177491896
              ],
              [
                173.765995184074,
                -35.2566234825133
              ],
              [
                173.76565058339,
                -35.2567517821878
              ],
              [
                173.765265266559,
                -35.2567504154947
              ],
              [
                173.764934749829,
                -35.2568469489899
              ],
              [
                173.764969233035,
                -35.2570856993245
              ],
              [
                173.765108866447,
                -35.2573543490142
              ],
              [
                173.765032415953,
                -35.2575994993119
              ],
              [
                173.764789733829,
                -35.2578281662914
              ],
              [
                173.764271882749,
                -35.2577422487066
              ],
              [
                173.76407086686,
                -35.257534731772
              ],
              [
                173.763786233068,
                -35.2573973654603
              ],
              [
                173.763257200688,
                -35.2573272988701
              ],
              [
                173.763004516901,
                -35.2573922985428
              ],
              [
                173.762887316467,
                -35.2575077824682
              ],
              [
                173.762872566042,
                -35.2576440830755
              ],
              [
                173.762963166073,
                -35.2577762164254
              ],
              [
                173.763135782701,
                -35.2585108490723
              ],
              [
                173.762963233342,
                -35.258614766442
              ],
              [
                173.762369050245,
                -35.2587865484319
              ],
              [
                173.755419166416,
                -35.2574418321937
              ],
              [
                173.755744533323,
                -35.2573345997462
              ],
              [
                173.757205999506,
                -35.2571181327038
              ],
              [
                173.757617100601,
                -35.2570044157356
              ],
              [
                173.759693666492,
                -35.2555273485813
              ],
              [
                173.760760200199,
                -35.2552205654769
              ],
              [
                173.761862633774,
                -35.2549853991037
              ],
              [
                173.762434832747,
                -35.2547364986938
              ],
              [
                173.763538699713,
                -35.2541204324206
              ],
              [
                173.76417178383,
                -35.2536606489105
              ],
              [
                173.76536993408,
                -35.2532657322838
              ],
              [
                173.765472583475,
                -35.2529557159046
              ],
              [
                173.765495649513,
                -35.2524761993527
              ],
              [
                173.765101599882,
                -35.2520761663827
              ],
              [
                173.76611863332,
                -35.2513441818452
              ],
              [
                173.769300083657,
                -35.2510301987343
              ],
              [
                173.769687583437,
                -35.2510843159624
              ],
              [
                173.766834934082,
                -35.2525614330742
              ],
              [
                173.771792950646,
                -35.2531657991081
              ],
              [
                173.772486483592,
                -35.2534062318524
              ],
              [
                173.772481299755,
                -35.2537632161283
              ],
              [
                173.772336666275,
                -35.2542526156798
              ]
            ]
          ]
        ]
      },
      "properties": {
        "OBJECTID": 9674,
        "NaPALIS_ID": 2797614,
        "Name": "Puketi Scenic Reserve",
        "Type": "RESERVE",
        "Legislation": "RESERVES_ACT",
        "Section": "S19_1_A_SCENIC_RESERVE",
        "Conservation_Unit_Number": "P05004",
        "Recorded_Area": 82.6
      }
    }
  ]
}
