{
  "type": "FeatureCollection",
  "features": [
    {
      "type": "Feature",
      "id": 8813,
      "geometry": {
        "type": "Polygon",
        "coordinates": [
          [
            [
              173.906310716846,
              -35.1024364329289
            ],
            [
              173.906206566484,
              -35.1025062827882
            ],
            [
              173.906159316316,
              -35.1026800157042
            ],
            [
              173.90572713259,
              -35.102497481816
            ],
            [
              173.90545699984,
              -35.1024594493177
            ],
            [
              173.904831133468,
              -35.1026014325394
            ],
            [
              173.904551099798,
              -35.1028688997324
            ],
            [
              173.904368650165,
              -35.1034333323405
            ],
            [
              173.903920049862,
              -35.1036426484926
            ],
            [
              173.903218950144,
              -35.1042076155273
            ],
            [
              173.902839133314,
              -35.1050616161217
            ],
            [
              173.901657933952,
              -35.1061906655824
            ],
            [
              173.90140781725,
              -35.1068749653718
            ],
            [
              173.901163549972,
              -35.1072252152719
            ],
            [
              173.900888216899,
              -35.107387199038
            ],
            [
              173.900255616322,
              -35.1075373989669
            ],
            [
              173.901366416784,
              -35.1082087159015
            ],
            [
              173.901970966407,
              -35.1090989497718
            ],
            [
              173.90210689986,
              -35.1091008317759
            ],
            [
              173.902253349892,
              -35.109006865982
            ],
            [
              173.902820600194,
              -35.1083207658551
            ],
            [
              173.902983949646,
              -35.1082678156241
            ],
            [
              173.903168183544,
              -35.1083106656004
            ],
            [
              173.903508633164,
              -35.1086327828854
            ],
            [
              173.903619066837,
              -35.1088204985382
            ],
            [
              173.903713783124,
              -35.1092403486193
            ],
            [
              173.904239950194,
              -35.1100746822905
            ],
            [
              173.904217766189,
              -35.1102830821229
            ],
            [
              173.904061500686,
              -35.1101203160158
            ],
            [
              173.903614599675,
              -35.1093272318202
            ],
            [
              173.903399250223,
              -35.1087358993125
            ],
            [
              173.903084100191,
              -35.1085203830749
            ],
            [
              173.902858550449,
              -35.1086463827515
            ],
            [
              173.902265833864,
              -35.1092833330279
            ],
            [
              173.90213214943,
              -35.1093291320505
            ],
            [
              173.901939834079,
              -35.1093061661023
            ],
            [
              173.901632183409,
              -35.1090966325206
            ],
            [
              173.901494850752,
              -35.1087903489997
            ],
            [
              173.901136267313,
              -35.1082996997095
            ],
            [
              173.900548217111,
              -35.1078871489696
            ],
            [
              173.899918250028,
              -35.1076011818828
            ],
            [
              173.899806199904,
              -35.1074468652311
            ],
            [
              173.899358717331,
              -35.1073855491721
            ],
            [
              173.899368050216,
              -35.1073033152107
            ],
            [
              173.899647316936,
              -35.106988315895
            ],
            [
              173.900371149821,
              -35.1068498821962
            ],
            [
              173.900741349447,
              -35.106595465795
            ],
            [
              173.901361884117,
              -35.1057164663532
            ],
            [
              173.90243854975,
              -35.1047306659045
            ],
            [
              173.902764300067,
              -35.10412754882
            ],
            [
              173.902981483504,
              -35.1038640659764
            ],
            [
              173.904093717021,
              -35.1031227651442
            ],
            [
              173.904357882539,
              -35.1026474325449
            ],
            [
              173.904578717396,
              -35.1023958823353
            ],
            [
              173.905027850164,
              -35.1022093987129
            ],
            [
              173.905458933616,
              -35.102128415288
            ],
            [
              173.905903432922,
              -35.102175683017
            ],
            [
              173.906332966475,
              -35.1023654325
            ],
            [
              173.906310716846,
              -35.1024364329289
            ]
          ]
        ]
      },
      "properties": {
        "OBJECTID": 8813,
        "NaPALIS_ID": 2797680,
        "Name": "Marginal Strip - Takou River",
        "Type": "MARGINAL_STRIP",
        "Legislation": "CONSERVATION_ACT",
        "Section": "S24_3_FIXED_MARGINAL_STRIP",
        "Conservation_Unit_Number": "P04044",
        "Recorded_Area": 5
      }
    },
    {
      "type": "Feature",
      "id": 9755,
      "geometry": {
        "type": "Polygon",
        "coordinates": [
          [
            [
              173.879267050564,
              -35.1142892322311
            ],
            [
              173.879045199179,
              -35.1144202817439
            ],
            [
              173.878841733527,
              -35.1144501829209
            ],
            [
              173.878662916984,
              -35.1143294651604
            ],
            [
              173.878567633935,
              -35.1141595991667
            ],
            [
              173.878467800304,
              -35.1141356984481
            ],
            [
              173.876771700777,
              -35.1147329164752
            ],
            [
              173.876594484117,
              -35.1146034656263
            ],
            [
              173.877137550241,
              -35.1145141496068
            ],
            [
              173.877763083004,
              -35.1142854159716
            ],
            [
              173.877939915967,
              -35.114154148438
            ],
            [
              173.87873043356,
              -35.1139253157211
            ],
            [
              173.878824383746,
              -35.1140020159201
            ],
            [
              173.878866516301,
              -35.1142894490483
            ],
            [
              173.879047416023,
              -35.1142308826205
            ],
            [
              173.879267050564,
              -35.1142892322311
            ]
          ]
        ]
      },
      "properties": {
        "OBJECTID": 9755,
        "NaPALIS_ID": 2797687,
        "Name": "Marginal Strip - Takou River",
        "Type": "MARGINAL_STRIP",
        "Legislation": "CONSERVATION_ACT",
        "Section": "S24_3_FIXED_MARGINAL_STRIP",
        "Conservation_Unit_Number": "P04051",
        "Recorded_Area": 0.5
      }
    },
    {
      "type": "Feature",
      "id": 4669,
      "geometry": {
        "type": "Polygon",
        "coordinates": [
          [
            [
              170.708388399928,
              -45.8018639494986
            ],
            [
              170.708126149761,
              -45.8013624662237
            ],
            [
              170.708935232688,
              -45.8011772823113
            ],
            [
              170.709187283324,
              -45.8016587662648
            ],
            [
              170.708388399928,
              -45.8018639494986
            ]
          ]
        ]
      },
      "properties": {
        "OBJECTID": 4669,
        "NaPALIS_ID": 2809874,
        "Name": "Otakou Cemetery",
        "Type": "RESERVE",
        "Legislation": "RESERVES_ACT",
        "Section": "S23_LOCAL_PURPOSE_RESERVE",
        "Conservation_Unit_Number": "I44251",
        "Recorded_Area": 0.4
      }
    },
    {
      "type": "Feature",
      "id": 822,
      "geometry": {
        "type": "Polygon",
        "coordinates": [
          [
            [
              173.882149100294,
              -35.1253918826378
            ],
            [
              173.881672566289,
              -35.1253065158123
            ],
            [
              173.881678066808,
              -35.1246068993604
            ],
            [
              173.882001317197,
              -35.1241510824657
            ],
            [
              173.881889749614,
              -35.1236625493489
            ],
            [
              173.882703283017,
              -35.1232668655566
            ],
            [
              173.882215099634,
              -35.1226721491051
            ],
            [
              173.882390699802,
              -35.1218119826939
            ],
            [
              173.883120666927,
              -35.1214024657394
            ],
            [
              173.883284950117,
              -35.1215949488174
            ],
            [
              173.884067483106,
              -35.121458265837
            ],
            [
              173.884164999634,
              -35.1210939157525
            ],
            [
              173.884735832951,
              -35.1210944660769
            ],
            [
              173.884788733183,
              -35.1205717158564
            ],
            [
              173.885092349662,
              -35.1204345819797
            ],
            [
              173.885532333567,
              -35.1204327324617
            ],
            [
              173.885927866842,
              -35.1202842155473
            ],
            [
              173.885631016693,
              -35.1184488154075
            ],
            [
              173.886547316527,
              -35.1181747324049
            ],
            [
              173.886767500316,
              -35.1169764494919
            ],
            [
              173.88704054958,
              -35.1165526653641
            ],
            [
              173.887909849975,
              -35.1160124658369
            ],
            [
              173.886919716421,
              -35.1154675992001
            ],
            [
              173.88604993369,
              -35.1152441159388
            ],
            [
              173.885651666596,
              -35.1153948154156
            ],
            [
              173.884560616973,
              -35.1147461994454
            ],
            [
              173.883861516983,
              -35.1149537494126
            ],
            [
              173.882942516766,
              -35.1153349327058
            ],
            [
              173.88221756691,
              -35.1148887654768
            ],
            [
              173.881134832897,
              -35.114856598781
            ],
            [
              173.87904741712,
              -35.1142308826126
            ],
            [
              173.878866516301,
              -35.1142894490483
            ],
            [
              173.878824383746,
              -35.1140020159201
            ],
            [
              173.878752850492,
              -35.1139249322954
            ],
            [
              173.877939917073,
              -35.1141541493316
            ],
            [
              173.877763083004,
              -35.1142854159716
            ],
            [
              173.877137550231,
              -35.1145141487052
            ],
            [
              173.87659448302,
              -35.1146034656342
            ],
            [
              173.875304667038,
              -35.1136416659229
            ],
            [
              173.87406298343,
              -35.1134919489388
            ],
            [
              173.872732367282,
              -35.113200981963
            ],
            [
              173.87173893361,
              -35.1128727164713
            ],
            [
              173.871211417353,
              -35.1128510326191
            ],
            [
              173.870458249644,
              -35.1126150497624
            ],
            [
              173.870137266507,
              -35.1126318661557
            ],
            [
              173.869979866596,
              -35.1125725492089
            ],
            [
              173.869903083036,
              -35.1123973496861
            ],
            [
              173.869829417278,
              -35.1123713487398
            ],
            [
              173.869422066725,
              -35.1124730163202
            ],
            [
              173.869060400107,
              -35.1122500488559
            ],
            [
              173.868908533535,
              -35.1118640159025
            ],
            [
              173.868603050029,
              -35.1115360488878
            ],
            [
              173.867992166864,
              -35.1110795824126
            ],
            [
              173.86794805077,
              -35.110937216311
            ],
            [
              173.868105999738,
              -35.1106328154767
            ],
            [
              173.868046349738,
              -35.1103825829803
            ],
            [
              173.868213849414,
              -35.1102661651572
            ],
            [
              173.867969349382,
              -35.1098931826295
            ],
            [
              173.867739350652,
              -35.1097890652374
            ],
            [
              173.867604600424,
              -35.1096133656408
            ],
            [
              173.867949933228,
              -35.1088526827834
            ],
            [
              173.86807011749,
              -35.1088462659749
            ],
            [
              173.868335967321,
              -35.1089589318985
            ],
            [
              173.868609433535,
              -35.1087375322851
            ],
            [
              173.871203550782,
              -35.1106709486251
            ],
            [
              173.872761883173,
              -35.1103288656935
            ],
            [
              173.87336081704,
              -35.1100354659309
            ],
            [
              173.874054366774,
              -35.1105666654119
            ],
            [
              173.875237150079,
              -35.1110613319665
            ],
            [
              173.875334532991,
              -35.1114234154219
            ],
            [
              173.875589549535,
              -35.1117491158215
            ],
            [
              173.876447782965,
              -35.1123023995498
            ],
            [
              173.876492866657,
              -35.1131141494395
            ],
            [
              173.878123332978,
              -35.1132448159967
            ],
            [
              173.879063216392,
              -35.1137144994565
            ],
            [
              173.879183516315,
              -35.113407632707
            ],
            [
              173.879371416405,
              -35.113268215396
            ],
            [
              173.879315950029,
              -35.1129832325453
            ],
            [
              173.879384600105,
              -35.1126687323191
            ],
            [
              173.879353383179,
              -35.1123705990969
            ],
            [
              173.87944779948,
              -35.1122210827825
            ],
            [
              173.879819166477,
              -35.1121712492736
            ],
            [
              173.88131813342,
              -35.1130718994211
            ],
            [
              173.881196817202,
              -35.1137764654815
            ],
            [
              173.882177682961,
              -35.1140388823028
            ],
            [
              173.882804883725,
              -35.1135102822263
            ],
            [
              173.883448982856,
              -35.1122997161085
            ],
            [
              173.883928450206,
              -35.1119539487879
            ],
            [
              173.88438783327,
              -35.1119480489651
            ],
            [
              173.884706499449,
              -35.1122285821847
            ],
            [
              173.885995566386,
              -35.1127668989687
            ],
            [
              173.886328699566,
              -35.1125590990258
            ],
            [
              173.886629400408,
              -35.1126939659169
            ],
            [
              173.886628749934,
              -35.1129279828082
            ],
            [
              173.886317316524,
              -35.1137014654207
            ],
            [
              173.886681549692,
              -35.1140009661634
            ],
            [
              173.887264966922,
              -35.1136276820948
            ],
            [
              173.88717186646,
              -35.113245065774
            ],
            [
              173.887636799909,
              -35.1123032159917
            ],
            [
              173.889421500189,
              -35.1135777656921
            ],
            [
              173.890189733691,
              -35.1144729993953
            ],
            [
              173.890973833347,
              -35.1137877158546
            ],
            [
              173.891400516638,
              -35.1133297825948
            ],
            [
              173.891940849955,
              -35.1132061995613
            ],
            [
              173.892569316845,
              -35.1134301987516
            ],
            [
              173.893164883151,
              -35.1125282822595
            ],
            [
              173.893176216386,
              -35.1117915161635
            ],
            [
              173.893960816516,
              -35.1114193991406
            ],
            [
              173.894733299789,
              -35.1118529661443
            ],
            [
              173.895768050152,
              -35.1109892162471
            ],
            [
              173.895791216888,
              -35.1104474160625
            ],
            [
              173.895403982964,
              -35.1098309493463
            ],
            [
              173.895373332801,
              -35.1093217991941
            ],
            [
              173.895130700411,
              -35.1090461157434
            ],
            [
              173.895435316435,
              -35.1085939657826
            ],
            [
              173.897684250512,
              -35.1078490491136
            ],
            [
              173.897714316164,
              -35.1071625995248
            ],
            [
              173.897916233622,
              -35.1070174656937
            ],
            [
              173.898936316717,
              -35.1079204819984
            ],
            [
              173.899358716234,
              -35.1073855491802
            ],
            [
              173.899806199914,
              -35.1074468661328
            ],
            [
              173.899918250037,
              -35.1076011827844
            ],
            [
              173.900548217111,
              -35.1078871489696
            ],
            [
              173.901136266206,
              -35.1082996988161
            ],
            [
              173.901494849654,
              -35.1087903490078
            ],
            [
              173.901632183409,
              -35.1090966325206
            ],
            [
              173.901939832982,
              -35.1093061661104
            ],
            [
              173.902132150528,
              -35.1093291320423
            ],
            [
              173.902265832757,
              -35.1092833321345
            ],
            [
              173.903022799871,
              -35.1085272489482
            ],
            [
              173.903360200333,
              -35.1087014987144
            ],
            [
              173.903614599685,
              -35.1093272327218
            ],
            [
              173.904061499588,
              -35.110120316024
            ],
            [
              173.904217766189,
              -35.1102830821229
            ],
            [
              173.903119066909,
              -35.1143902824291
            ],
            [
              173.902478016715,
              -35.1165089158152
            ],
            [
              173.901686816766,
              -35.1164391326586
            ],
            [
              173.900941883678,
              -35.116951165866
            ],
            [
              173.900255650106,
              -35.116821032085
            ],
            [
              173.900550666641,
              -35.1158000493829
            ],
            [
              173.900273749715,
              -35.1156020992192
            ],
            [
              173.899611132851,
              -35.1160824993127
            ],
            [
              173.8988265334,
              -35.1160904488717
            ],
            [
              173.897884933676,
              -35.1170019993015
            ],
            [
              173.896785033642,
              -35.1174001324985
            ],
            [
              173.896460133638,
              -35.1184617661403
            ],
            [
              173.896696966895,
              -35.1189240657115
            ],
            [
              173.896731716783,
              -35.1192921989754
            ],
            [
              173.896501449537,
              -35.1196711157339
            ],
            [
              173.896592200308,
              -35.120596849264
            ],
            [
              173.896182533011,
              -35.1210976823558
            ],
            [
              173.895015516722,
              -35.1211852990575
            ],
            [
              173.89485600027,
              -35.1217121487076
            ],
            [
              173.89465716682,
              -35.1217333987107
            ],
            [
              173.894875666636,
              -35.1209178493927
            ],
            [
              173.893961733578,
              -35.120660616256
            ],
            [
              173.894083782797,
              -35.1186182661713
            ],
            [
              173.892563167099,
              -35.1191679820651
            ],
            [
              173.892908149713,
              -35.1198223991146
            ],
            [
              173.89195305026,
              -35.12028824874
            ],
            [
              173.891157066281,
              -35.1210217993228
            ],
            [
              173.890601916783,
              -35.1204545660555
            ],
            [
              173.889701499468,
              -35.120166965871
            ],
            [
              173.88976549977,
              -35.1195546990149
            ],
            [
              173.888238917222,
              -35.1199739654351
            ],
            [
              173.887676749601,
              -35.1206368157774
            ],
            [
              173.886045449471,
              -35.1215131160936
            ],
            [
              173.885633583768,
              -35.1221875322733
            ],
            [
              173.885388833139,
              -35.1233185328497
            ],
            [
              173.88439681649,
              -35.1234249154844
            ],
            [
              173.882714433257,
              -35.1250399822941
            ],
            [
              173.882149100294,
              -35.1253918826378
            ]
          ]
        ]
      },
      "properties": {
        "OBJECTID": 822,
        "NaPALIS_ID": 2795731,
        "Name": "Takou River Scenic Reserve",
        "Type": "RESERVE",
        "Legislation": "RESERVES_ACT",
        "Section": "S19_1_A_SCENIC_RESERVE",
        "Conservation_Unit_Number": "P04029",
        "Recorded_Area": 192
      }
    }
  ]
}
